CCSDS_OMM_VERS = 2.0
CREATION_DATE  = 
ORIGINATOR     = 

OBJECT_NAME    = SL-16 R/B
OBJECT_ID      = 1993-016B
CENTER_NAME    = EARTH
REF_FRAME      = TEME
TIME_SYSTEM    = UTC
MEAN_ELEMENT_THEORY = SGP/SGP4

EPOCH          = 2025-12-08T14:32:22.732224
MEAN_MOTION    = 14.15287549
ECCENTRICITY   = .00078263
INCLINATION    = 71.0087
RA_OF_ASC_NODE = 46.4862
ARG_OF_PERICENTER = 105.4696
MEAN_ANOMALY   = 254.7292

EPHEMERIS_TYPE = 0
CLASSIFICATION_TYPE = U
NORAD_CAT_ID   = 22566
ELEMENT_SET_NO = 999
REV_AT_EPOCH   = 68928
BSTAR          = -.54054049E-4
MEAN_MOTION_DOT = -.153E-5
MEAN_MOTION_DDOT = 0

CCSDS_OMM_VERS = 2.0
CREATION_DATE  = 
ORIGINATOR     = 

OBJECT_NAME    = COSMOS 2242
OBJECT_ID      = 1993-024A
CENTER_NAME    = EARTH
REF_FRAME      = TEME
TIME_SYSTEM    = UTC
MEAN_ELEMENT_THEORY = SGP/SGP4

EPOCH          = 2025-12-08T13:20:31.254720
MEAN_MOTION    = 14.96080464
ECCENTRICITY   = .00148013
INCLINATION    = 82.5187
RA_OF_ASC_NODE = 353.8437
ARG_OF_PERICENTER = 249.7104
MEAN_ANOMALY   = 110.2527

EPHEMERIS_TYPE = 0
CLASSIFICATION_TYPE = U
NORAD_CAT_ID   = 22626
ELEMENT_SET_NO = 999
REV_AT_EPOCH   = 76676
BSTAR          = .2971829E-3
MEAN_MOTION_DOT = .3371E-4
MEAN_MOTION_DDOT = 0

CCSDS_OMM_VERS = 2.0
CREATION_DATE  = 
ORIGINATOR     = 

OBJECT_NAME    = SL-16 R/B
OBJECT_ID      = 1993-059B
CENTER_NAME    = EARTH
REF_FRAME      = TEME
TIME_SYSTEM    = UTC
MEAN_ELEMENT_THEORY = SGP/SGP4

EPOCH          = 2025-12-08T15:19:15.141216
MEAN_MOTION    = 14.17213336
ECCENTRICITY   = .00177441
INCLINATION    = 70.9897
RA_OF_ASC_NODE = 203.1348
ARG_OF_PERICENTER = 341.4842
MEAN_ANOMALY   = 18.5633

EPHEMERIS_TYPE = 0
CLASSIFICATION_TYPE = U
NORAD_CAT_ID   = 22803
ELEMENT_SET_NO = 999
REV_AT_EPOCH   = 66663
BSTAR          = .92285143E-4
MEAN_MOTION_DOT = .138E-5
MEAN_MOTION_DDOT = 0

CCSDS_OMM_VERS = 2.0
CREATION_DATE  = 
ORIGINATOR     = 

OBJECT_NAME    = ARIANE 40 R/B
OBJECT_ID      = 1993-061H
CENTER_NAME    = EARTH
REF_FRAME      = TEME
TIME_SYSTEM    = UTC
MEAN_ELEMENT_THEORY = SGP/SGP4

EPOCH          = 2025-12-08T15:18:21.789216
MEAN_MOTION    = 14.32797808
ECCENTRICITY   = .00106396
INCLINATION    = 98.5081
RA_OF_ASC_NODE = 48.2423
ARG_OF_PERICENTER = 188.0387
MEAN_ANOMALY   = 172.0629

EPHEMERIS_TYPE = 0
CLASSIFICATION_TYPE = U
NORAD_CAT_ID   = 22830
ELEMENT_SET_NO = 999
REV_AT_EPOCH   = 68106
BSTAR          = .22673127E-3
MEAN_MOTION_DOT = .575E-5
MEAN_MOTION_DDOT = 0

CCSDS_OMM_VERS = 2.0
CREATION_DATE  = 
ORIGINATOR     = 

OBJECT_NAME    = COSMOS 2278
OBJECT_ID      = 1994-023A
CENTER_NAME    = EARTH
REF_FRAME      = TEME
TIME_SYSTEM    = UTC
MEAN_ELEMENT_THEORY = SGP/SGP4

EPOCH          = 2025-12-08T12:06:34.886880
MEAN_MOTION    = 14.14351338
ECCENTRICITY   = .00085459
INCLINATION    = 71.0547
RA_OF_ASC_NODE = 5.8719
ARG_OF_PERICENTER = 186.4220
MEAN_ANOMALY   = 173.6794

EPHEMERIS_TYPE = 0
CLASSIFICATION_TYPE = U
NORAD_CAT_ID   = 23087
ELEMENT_SET_NO = 999
REV_AT_EPOCH   = 63191
BSTAR          = -.12608895E-4
MEAN_MOTION_DOT = -.71E-6
MEAN_MOTION_DDOT = 0

CCSDS_OMM_VERS = 2.0
CREATION_DATE  = 
ORIGINATOR     = 

OBJECT_NAME    = SL-16 R/B
OBJECT_ID      = 1994-023B
CENTER_NAME    = EARTH
REF_FRAME      = TEME
TIME_SYSTEM    = UTC
MEAN_ELEMENT_THEORY = SGP/SGP4

EPOCH          = 2025-12-08T12:31:38.219232
MEAN_MOTION    = 14.15001712
ECCENTRICITY   = .00011686
INCLINATION    = 71.0009
RA_OF_ASC_NODE = 262.3426
ARG_OF_PERICENTER = 45.3915
MEAN_ANOMALY   = 314.7303

EPHEMERIS_TYPE = 0
CLASSIFICATION_TYPE = U
NORAD_CAT_ID   = 23088
ELEMENT_SET_NO = 999
REV_AT_EPOCH   = 63319
BSTAR          = .16045038E-3
MEAN_MOTION_DOT = .263E-5
MEAN_MOTION_DDOT = 0

CCSDS_OMM_VERS = 2.0
CREATION_DATE  = 
ORIGINATOR     = 

OBJECT_NAME    = SL-16 R/B
OBJECT_ID      = 1994-074B
CENTER_NAME    = EARTH
REF_FRAME      = TEME
TIME_SYSTEM    = UTC
MEAN_ELEMENT_THEORY = SGP/SGP4

EPOCH          = 2025-12-08T15:01:47.524800
MEAN_MOTION    = 14.79283258
ECCENTRICITY   = .00072627
INCLINATION    = 97.7205
RA_OF_ASC_NODE = 12.0942
ARG_OF_PERICENTER = 147.6183
MEAN_ANOMALY   = 326.1173

EPHEMERIS_TYPE = 0
CLASSIFICATION_TYPE = U
NORAD_CAT_ID   = 23343
ELEMENT_SET_NO = 999
REV_AT_EPOCH   = 67378
BSTAR          = .14167075E-3
MEAN_MOTION_DOT = .1004E-4
MEAN_MOTION_DDOT = 0

CCSDS_OMM_VERS = 2.0
CREATION_DATE  = 
ORIGINATOR     = 

OBJECT_NAME    = SL-16 R/B
OBJECT_ID      = 1994-077B
CENTER_NAME    = EARTH
REF_FRAME      = TEME
TIME_SYSTEM    = UTC
MEAN_ELEMENT_THEORY = SGP/SGP4

EPOCH          = 2025-12-08T14:38:05.548416
MEAN_MOTION    = 14.15547428
ECCENTRICITY   = .00045955
INCLINATION    = 70.9811
RA_OF_ASC_NODE = 184.1022
ARG_OF_PERICENTER = 287.1871
MEAN_ANOMALY   = 72.8748

EPHEMERIS_TYPE = 0
CLASSIFICATION_TYPE = U
NORAD_CAT_ID   = 23405
ELEMENT_SET_NO = 999
REV_AT_EPOCH   = 60334
BSTAR          = .15910099E-3
MEAN_MOTION_DOT = .263E-5
MEAN_MOTION_DDOT = 0

CCSDS_OMM_VERS = 2.0
CREATION_DATE  = 
ORIGINATOR     = 

OBJECT_NAME    = ARIANE 40+ R/B
OBJECT_ID      = 1995-021B
CENTER_NAME    = EARTH
REF_FRAME      = TEME
TIME_SYSTEM    = UTC
MEAN_ELEMENT_THEORY = SGP/SGP4

EPOCH          = 2025-12-08T15:32:21.079680
MEAN_MOTION    = 14.39691310
ECCENTRICITY   = .00076269
INCLINATION    = 98.4655
RA_OF_ASC_NODE = 50.2855
ARG_OF_PERICENTER = 60.6392
MEAN_ANOMALY   = 59.2785

EPHEMERIS_TYPE = 0
CLASSIFICATION_TYPE = U
NORAD_CAT_ID   = 23561
ELEMENT_SET_NO = 999
REV_AT_EPOCH   = 60614
BSTAR          = .23319009E-3
MEAN_MOTION_DOT = .686E-5
MEAN_MOTION_DDOT = 0

CCSDS_OMM_VERS = 2.0
CREATION_DATE  = 
ORIGINATOR     = 

OBJECT_NAME    = SL-16 R/B
OBJECT_ID      = 1995-058B
CENTER_NAME    = EARTH
REF_FRAME      = TEME
TIME_SYSTEM    = UTC
MEAN_ELEMENT_THEORY = SGP/SGP4

EPOCH          = 2025-12-08T12:59:54.824928
MEAN_MOTION    = 14.15482389
ECCENTRICITY   = .0014921
INCLINATION    = 71.0225
RA_OF_ASC_NODE = 11.6184
ARG_OF_PERICENTER = 260.4184
MEAN_ANOMALY   = 99.5253

EPHEMERIS_TYPE = 0
CLASSIFICATION_TYPE = U
NORAD_CAT_ID   = 23705
ELEMENT_SET_NO = 999
REV_AT_EPOCH   = 55495
BSTAR          = .16398959E-3
MEAN_MOTION_DOT = .273E-5
MEAN_MOTION_DDOT = 0

CCSDS_OMM_VERS = 2.0
CREATION_DATE  = 
ORIGINATOR     = 

OBJECT_NAME    = SL-16 R/B
OBJECT_ID      = 1996-051B
CENTER_NAME    = EARTH
REF_FRAME      = TEME
TIME_SYSTEM    = UTC
MEAN_ELEMENT_THEORY = SGP/SGP4

EPOCH          = 2025-12-08T12:32:30.808320
MEAN_MOTION    = 14.12396053
ECCENTRICITY   = .00193286
INCLINATION    = 70.7597
RA_OF_ASC_NODE = 8.2108
ARG_OF_PERICENTER = 266.5158
MEAN_ANOMALY   = 93.3751

EPHEMERIS_TYPE = 0
CLASSIFICATION_TYPE = U
NORAD_CAT_ID   = 24298
ELEMENT_SET_NO = 999
REV_AT_EPOCH   = 50877
BSTAR          = .55889686E-4
MEAN_MOTION_DOT = .54E-6
MEAN_MOTION_DDOT = 0

CCSDS_OMM_VERS = 2.0
CREATION_DATE  = 
ORIGINATOR     = 

OBJECT_NAME    = ORBVIEW 2 (SEASTAR)
OBJECT_ID      = 1997-037A
CENTER_NAME    = EARTH
REF_FRAME      = TEME
TIME_SYSTEM    = UTC
MEAN_ELEMENT_THEORY = SGP/SGP4

EPOCH          = 2025-12-08T10:53:56.374944
MEAN_MOTION    = 14.35412523
ECCENTRICITY   = .00018714
INCLINATION    = 98.8455
RA_OF_ASC_NODE = 139.4207
ARG_OF_PERICENTER = 355.5210
MEAN_ANOMALY   = 4.5957

EPHEMERIS_TYPE = 0
CLASSIFICATION_TYPE = U
NORAD_CAT_ID   = 24883
ELEMENT_SET_NO = 999
REV_AT_EPOCH   = 49538
BSTAR          = .24212268E-3
MEAN_MOTION_DOT = .649E-5
MEAN_MOTION_DDOT = 0

