SL-16 R/B               
1 22566U 93016B   25342.60581866 -.00000153  00000+0 -54054-4 0  9998
2 22566  71.0087  46.4862 0007826 105.4696 254.7292 14.15287549689280
COSMOS 2242             
1 22626U 93024A   25342.55591730  .00003371  00000+0  29718-3 0  9990
2 22626  82.5187 353.8437 0014801 249.7104 110.2527 14.96080464766767
SL-16 R/B               
1 22803U 93059B   25342.63836969  .00000138  00000+0  92285-4 0  9998
2 22803  70.9897 203.1348 0017744 341.4842  18.5633 14.17213336666631
ARIANE 40 R/B           
1 22830U 93061H   25342.63775219  .00000575  00000+0  22673-3 0  9999
2 22830  98.5081  48.2423 0010639 188.0387 172.0629 14.32797808681062
COSMOS 2278             
1 23087U 94023A   25342.50457045 -.00000071  00000+0 -12609-4 0  9995
2 23087  71.0547   5.8719 0008545 186.4220 173.6794 14.14351338631911
SL-16 R/B               
1 23088U 94023B   25342.52197013  .00000263  00000+0  16045-3 0  9992
2 23088  71.0009 262.3426 0001168  45.3915 314.7303 14.15001712633193
SL-16 R/B               
1 23343U 94074B   25342.62624450  .00001004  00000+0  14167-3 0  9990
2 23343  97.7205  12.0942 0007262 147.6183 326.1173 14.79283258673785
SL-16 R/B               
1 23405U 94077B   25342.60978644  .00000263  00000+0  15910-3 0  9990
2 23405  70.9811 184.1022 0004595 287.1871  72.8748 14.15547428603340
ARIANE 40+ R/B          
1 23561U 95021B   25342.64746620  .00000686  00000+0  23319-3 0  9995
2 23561  98.4655  50.2855 0007626  60.6392  59.2785 14.39691310606148
SL-16 R/B               
1 23705U 95058B   25342.54160677  .00000273  00000+0  16399-3 0  9998
2 23705  71.0225  11.6184 0014921 260.4184  99.5253 14.15482389554955
SL-16 R/B               
1 24298U 96051B   25342.52257880  .00000054  00000+0  55890-4 0  9998
2 24298  70.7597   8.2108 0019328 266.5158  93.3751 14.12396053508776
ORBVIEW 2 (SEASTAR)     
1 24883U 97037A   25342.45412471  .00000649  00000+0  24212-3 0  9997
2 24883  98.8455 139.4207 0001871 355.5210   4.5957 14.35412523495389
